#cP2024  9 19 18  0  0.00000000     192 ORBIT IGS20 HLM  IGS
## 2332 410400.00000000   900.00000000 60572 0.7500000000000
+   50   G02G03G04G05G06G07G08G09G10G11G12G13G14G15G16G18G19
+        G20G21G22G23G24G25G26G27G28G29G30G31G32R01R02R03R04
+        R05R07R08R09R11R12R14R15R16R17R18R19R20R21R22R24  0
+          0  0  0  0  0  0  0  0  0  0  0  0  0  0  0  0  0
+          0  0  0  0  0  0  0  0  0  0  0  0  0  0  0  0  0
++         3  3  3  3  4  4  3  3  3  4  3  3  3  3  3  3  3
++         4  4  3  3  3  4  3  4  4  3  4  4  3  4  4  5  5
++         4  5  4  4  4  4  4  5  4  4  5  5  5  4  4  4  0
++         0  0  0  0  0  0  0  0  0  0  0  0  0  0  0  0  0
++         0  0  0  0  0  0  0  0  0  0  0  0  0  0  0  0  0
%c M  cc GPS ccc cccc cccc cccc cccc ccccc ccccc ccccc ccccc
%c cc cc ccc ccc cccc cccc cccc cccc ccccc ccccc ccccc ccccc
%f  1.2500000  1.025000000  0.00000000000  0.000000000000000
%f  0.0000000  0.000000000  0.00000000000  0.000000000000000
%i    0    0    0    0      0      0      0      0         0
%i    0    0    0    0      0      0      0      0         0
/* ULTRA ORBIT COMBINATION 23325_18 (60573.750) FROM:       
/* cou emu esu gfu gru siu usu whu coR emR esR gfR whR      
/* REFERENCED TO emu CLOCK AND TO WEIGHTED MEAN POLE:       
/* PCV:IGS20      OL/AL:FES2014b NONE     Y  ORB:CMB CLK:CMB
*  2024  9 19 18 30  0.00000000
PG02 -15487.641615   1147.542034  22045.807293   -354.649626  7 10  4 123       
PG03 -22118.438108  11499.163485   8835.626949    543.313724  4 10  9 158       
PG04 -22887.164019   1343.182811 -13520.278180    446.695418  5  8  6 174       
PG05  17321.573919   2378.498624 -20197.699390   -187.125341  5  8  7 178       
PG06   4948.974274  26033.730643   -277.076107     19.664009  8  7 10 148       
PG07  -7949.138170  18895.783752 -16105.312307    -35.986078  8  7  4 194       
PG08 -25997.184239  -6022.422316   2341.936117    357.956342  3  8  7  68       
PG09 -14659.672911  10028.222744 -19857.504991    363.407697  8  8  7 175       
PG10   4488.334671 -19420.052733  17592.841214   -130.589645  5  5  5 153       
PG11  12545.824615  18882.230879 -13864.406838   -736.323397  8 10  8 205       
PG12  22685.757372  -7342.599899  11371.341396   -539.239752  7  7  7 178       
PG13  22288.852317  14229.946856  -3841.358249    677.340174  2  8  7 174       
PG14  -8292.503122  20600.088592  14447.225081    499.227407 10  9  5 153       
PG15  26354.704585   2978.316749   2080.503691    206.163009  5  5  4 170       
PG16 -14471.658134  -7806.138621 -21277.247667   -176.684793  7  9  8 182       
PG18   7622.814746 -19514.123174 -16168.688619   -654.238636  8  7  8 171       
PG19  11252.502902  17668.491219  16425.242383    540.153386  9 11  8 189       
PG20   9798.013873  12079.284046 -21472.797959    370.476681  7  8  6 188       
PG21 -16698.195538  -6063.892621  20450.450816    101.436956  6 10  4 154       
PG22  -1327.255849  18166.050579  19841.924978    -63.429446  9  7  5 179       
PG23  15417.173717 -20426.528653   6684.347242    323.743802  1  7  8 150       
PG24  16266.716508   1229.675264  20576.920930   -486.529896  9  5  6 158       
PG25  19939.171669 -17280.327055    961.276651    499.629531  6  8  7 175       
PG26  -4724.458822 -16735.790317 -20143.249681     75.231772  6  8  6 117       
PG27 -22017.560697 -13144.581407  -8011.191455    -33.885652  8 12  5 161       
PG28  -4628.034380 -26073.948195   2019.808952   -417.039320 11 13 11 148       
PG29  17566.812752  -6610.819819 -18885.830151   -576.795829  7  8  8 168       
PG30   -885.983567  25150.001756  -7905.173669   -318.241677 10 11  8  98       
PG31 -11158.343553 -21730.796447 -10173.523759   -224.497077  9  6  8 187       
PG32  -4394.119586 -16524.231389  20591.450477   -595.574667  7  6  6 181       
PR01  19029.994227   6227.303403 -15813.802038 999999.999999  9 11 11           
PR02  25458.118989   -774.321282    137.951697 999999.999999  3  9  6           
PR03  17781.316837  -8318.833366  16288.982937 999999.999999  7  8  8           
PR04    827.167851 -10721.922386  23151.976485 999999.999999  9 10  5           
PR05 -16690.862616  -7750.087207  17682.234597 999999.999999  7 11  6           
PR07 -17469.729693   8413.829285 -16571.067899 999999.999999 10  7  8           
PR08   -521.100380  10812.998876 -23043.990017 999999.999999 10 10  7           
PR09 -14127.449140   6111.574998 -20292.730556 999999.999999  3  9  8           
PR11  -7222.494359  22938.848391   8488.674098 999999.999999 12 10 10           
PR12   5602.765449  11950.007575  21857.979353 999999.999999 11  8  2           
PR14  14144.187918 -19930.254272   7361.666219 999999.999999  8  9 10           
PR15   6321.817961 -22587.349230 -10014.198088 999999.999999 12 13 10           
PR16  -5367.815137 -12055.875212 -21823.519590 999999.999999 10 13  8           
PR17   5482.255481 -10702.311551 -22476.635711 999999.999999 10 10  4           
PR18  -5860.380761 -21132.957714 -13041.958642 999999.999999  6 10 10           
PR19 -12956.457895 -21928.918590   1239.034586 999999.999999 16 18 17           
PR20 -14400.167975  -7843.943113  19561.522091 999999.999999 12 14 13           
PR21  -5945.153740  10046.112296  22688.216293 999999.999999 11 10  8           
PR22   5895.511304  21743.212251  11989.816868 999999.999999 11  8  7           
PR24  14946.562566   6473.065172 -19620.646119 999999.999999  8 11  9           
*  2024  9 19 18 45  0.00000000
PG02 -16203.238570  -1130.821385  21544.155791   -354.642266  7 10  4 122       
PG03 -21371.786418  10567.050102  11421.058866    543.325475  4 10  8 153       
PG04 -24158.888773    707.957253 -11164.836322    446.701802  5  8  5 175       
PG05  15754.928815   4098.302752 -21183.593111   -187.126325  5  8  6 183       
PG06   4746.606315  25946.923674   2637.914937     19.640492  8  9 10 143       
PG07  -8620.211949  16944.081678 -17827.898914    -35.982668  8  8  4 200       
PG08 -26048.076673  -6293.764699   -466.361936    357.967818  3  8  7  76       
PG09 -16727.166062   9337.391223 -18513.923985    363.422167  8  8  7 178       
PG10   5949.004020 -20601.199018  15659.123382   -130.600808  5  4  6 153       
PG11  12623.298971  20347.253259 -11536.934584   -736.327074  8 11  8 206       
PG12  21679.370394  -6240.597728  13701.261077   -539.242276  7  8  7 179       
PG13  21690.989367  14168.155177  -6623.032886    677.341569  2  8  7 171       
PG14  -9597.957898  21437.406219  12224.286476    499.235008 10  9  6 160       
PG15  26443.615649   3307.260559   -714.664906    206.167120  5  4  5 167       
PG16 -12612.794422  -9306.605752 -21819.200981   -176.675544  7  9  7 178       
PG18   8178.715565 -17626.103639 -17982.084249   -654.240538  8  7  8 179       
PG19   9369.371662  17014.597379  18151.368381    540.157443  9 11  8 189       
PG20   8307.142133  14012.377874 -20935.068215    370.476350  6  8  6 192       
PG21 -17332.839172  -8131.806990  19233.711869    101.436334  6 10  4 155       
PG22  -3047.782739  19382.297152  18448.512950    -63.432576  9  7  6 176       
PG23  15992.165127 -20702.598425   3860.921698    323.751315  3  6  8 137       
PG24  16963.334003   3529.099434  19786.986772   -486.529560  9  7  5 151       
PG25  19931.296192 -16842.360693   3792.637113    499.629544  6  8  7 174       
PG26  -3121.195532 -18293.495988 -19028.362480     75.224027  6  8  6 114       
PG27 -20988.341369 -13048.656537 -10572.943821    -33.885716  8 12  4 167       
PG28  -4285.071688 -25757.886006   4842.268100   -417.051649 10 14 11 150       
PG29  19438.541873  -5754.655277 -17270.309467   -576.793753  7  8  8 175       
PG30  -1441.163089  24170.429376 -10449.472763   -318.235170 10  9  7  61       
PG31 -11098.547869 -22762.293552  -7559.165925   -224.496366  9  7  8 186       
PG32  -2117.793305 -15923.233306  21399.396430   -595.571264  7  6  5 182       
PR01  16945.765269   6336.117851 -17991.385063 999999.999999 10 11 10           
PR02  25261.303560   -929.042407  -3083.755464 999999.999999  2  9  6           
PR03  19623.499866  -8571.654238  13849.306085 999999.999999  7  9  9           
PR04   3651.610007 -10913.227815  22784.516890 999999.999999  9  9  6           
PR05 -14388.913338  -7774.646850  19589.506951 999999.999999  7 11  6           
PR07 -19358.554647   8669.975156 -14176.434222 999999.999999 10  8  9           
PR08  -3349.913797  11028.811028 -22705.724058 999999.999999 10 10  7           
PR09 -13048.438329   3759.806591 -21553.910773 999999.999999  3  9  7           
PR11  -7462.638791  23773.473311   5426.454257 999999.999999 12 10 10           
PR12   4520.742650  14331.304398  20642.581787 999999.999999 11  8  3           
PR14  13583.728724 -18992.190443  10310.394087 999999.999999  8  9 10           
PR15   6669.292660 -23590.893712  -7041.071138 999999.999999 12 13 10           
PR16  -4301.550486 -14448.253256 -20575.034855 999999.999999 10 13  9           
PR17   7018.492991  -8343.466153 -23045.626947 999999.999999 10 11  4           
PR18  -5032.315785 -19559.449346 -15587.015189 999999.999999  6  9 10           
PR19 -13118.605838 -21774.663503  -2006.878837 999999.999999 16 18 17           
PR20 -15699.793102  -9739.220960  17614.073114 999999.999999 12 14 13           
PR21  -7469.530762   7660.435211  23160.515026 999999.999999 11 11  8           
PR22   5139.966179  20286.097969  14611.256553 999999.999999 11  8  5           
PR24  16304.906967   8342.723221 -17747.774244 999999.999999  8 10 10           
EOF
